SXM-9                   
1 62259U 24234A   26158.11483690 -.00000191  00000+0  00000+0 0  9993
2 62259   0.0153 323.8392 0004717 351.9074 255.9673  1.00271393  5472
TJS-12                  
1 62374U 24246A   26159.23019682 -.00000215  00000+0  00000+0 0  9991
2 62374   0.6912 298.2471 0002222  87.1008 100.7083  1.00272539  5471
NUVIEW ALPHA            
1 62455U 24252B   26159.18468028 -.00000200  00000+0  00000+0 0  9998
2 62455   0.0563  33.5361 0000943  25.6150 180.8373  1.00272164  3730
AGILA                   
1 62456U 24252C   26159.15991831 -.00000166  00000+0  00000+0 0  9990
2 62456   0.0545 133.1747 0000910 325.8232   7.2793  1.00271880  5077
NUVIEW BRAVO            
1 62457U 24252D   26159.18468028 -.00000199  00000+0  00000+0 0  9997
2 62457   0.0699 144.7938 0001746 335.2888 119.8741  1.00271433  3703
THURAYA-4               
1 62483U 25001A   26159.01187307  .00000154  00000+0  00000+0 0  9999
2 62483   0.0253  66.4847 0000027  47.5901 190.9226  1.00272891  4086
SHIJIAN-25 (SJ-25)      
1 62485U 25002A   26158.77653780 -.00000335  00000+0  00000+0 0  9999
2 62485   5.0898  61.2190 0051967 172.8822  68.9603  1.00274168  5268
TJS-14                  
1 62804U 25017A   26159.27605999  .00000130  00000+0  00000+0 0  9997
2 62804   0.8037 294.9524 0000711 279.0403 160.4182  1.00271158  5180
SPAINSAT NG I           
1 62852U 25021A   26158.92172574  .00000166  00000+0  00000+0 0  9993
2 62852   0.0027  10.8052 0000515 163.7161  82.6317  1.00269142  3898
QZS-6 (MICHIBIKI-6)     
1 62876U 25023A   26159.14775940 -.00000218  00000+0  00000+0 0  9991
2 62876   0.0299  51.3370 0001989  33.6649 315.2335  1.00273933  4855
ZHONGXING-10R           
1 63075U 25036A   26159.29432773 -.00000336  00000+0  00000+0 0  9998
2 63075   0.0436 250.5992 0003340 252.1944 330.3849  1.00269810  4871
TJS-15                  
1 63157U 25045A   26158.72072588 -.00000249  00000+0  00000+0 0  9993
2 63157   0.2768  85.4125 0005413 298.5865 225.9531  1.00268269  4665
TIANLIAN 2-04           
1 63361U 25062A   26158.93182172 -.00000121  00000+0  00000+0 0  9992
2 63361   4.3996 274.5717 0031464  10.5738  26.6960  1.00270376  4512
TJS-16                  
1 63397U 25064A   26158.77499439 -.00000090  00000+0  00000+0 0  9997
2 63397   1.0729  81.5109 0003606 292.5698 321.6958  1.00272157  4293
TJS-17                  
1 63524U 25073A   26158.77508406 -.00000054  00000+0  00000+0 0  9994
2 63524   1.0387  82.7755 0002371 300.4090 316.5395  1.00272271  4192
TIANLIAN 2-05           
1 63662U 25084A   26159.13389266  .00000138  00000+0  00000+0 0  9993
2 63662   4.4752 279.9356 0003391 146.1812 259.0168  1.00269882  4299
TJS-19                  
1 63924U 25097A   26158.77620965 -.00000264  00000+0  00000+0 0  9992
2 63924   3.3030 317.2737 0002038 234.6960 124.9234  1.00269548  4046
CHINASAT 3B             
1 64062U 25106A   26159.23427017 -.00000029  00000+0  00000+0 0  9991
2 64062   0.0389 143.0263 0002888 332.6158  32.6583  1.00271963  3978
SXM-10                  
1 64290U 25122A   26158.67904672 -.00000002  00000+0  00000+0 0  9997
2 64290   0.0171  15.4671 0001753 357.0715  11.8306  1.00270656  3582
COSMOS 2589             
1 64467U 25131A   26158.75242078 -.00000276  00000+0  00000+0 0  9990
2 64467   0.0438  71.9827 0001205  72.8146 120.2091  1.00272244  3464
CHINASAT 9C             
1 64470U 25132A   26159.14810606 -.00000232  00000+0  00000+0 0  9999
2 64470   0.0273 261.4146 0002831 176.2212 324.4407  1.00272453  4051
MTG-S1                  
1 64723U 25143A   26159.27172663 -.00000017  00000+0  00000+0 0  9991
2 64723   0.6113 336.9159 0001048  29.7601 344.3330  1.00271630  3338
DROR 1                  
1 64784U 25148A   26159.27163997 -.00000019  00000+0  00000+0 0  9995
2 64784   0.0091   5.2122 0002853  25.7576 319.4777  1.00271693  3205
SHIYAN-29               
1 65486U 25196A   26159.07723463 -.00000258  00000+0  00000+0 0  9991
2 65486  28.8110  18.6517 0010923 171.3837 188.3759  1.00256989  2782
NUSANTARA LIMA (NUSANT*)
1 65588U 25205A   26159.29476106 -.00000342  00000+0  00000+0 0  9992
2 65588   0.0287 147.7843 0000388 313.6223  14.2473  1.00270960  2631
TJS-20                  
1 66142U 25238A   26159.02774112  .00000036  00000+0  00000+0 0  9993
2 66142   5.4910 299.5853 0004742 156.9065 232.3044  1.00272773  2245
CMS-03 (GSAT-7R)        
1 66311U 25249B   26159.07316128 -.00000062  00000+0  00000+0 0  9997
2 66311   0.0261 260.7506 0001817 174.2651 281.7903  1.00271385  2253
VIASAT-3 F2             
1 66454U 25261A   26159.18546028 -.00000218  00000+0  00000+0 0  9998
2 66454   0.0474 141.6018 0000104 337.6387 125.1116  1.00272073  2703
SHIJIAN-28 (SJ-28)      
1 66549U 25277A   26159.29554106 -.00000346  00000+0  00000+0 0  9990
2 66549   4.5624 272.2754 0000504 354.2792 213.4068  1.00268181  2062
TJS-22                  
1 66990U 25290A   26158.90040774  .00000008  00000+0  00000+0 0  9997
2 66990   1.5505 286.4486 0001982 332.8575  27.5821  1.00272082  1939
TJS-23                  
1 67226U 25306A   26158.62813425  .00000027  00000+0  00000+0 0  9999
2 67226   5.6092 297.5405 0005117 165.3267 194.7678  1.00273064  1795
FENGYUN 4C              
1 67246U 25312A   26159.29874774 -.00000307  00000+0  00000+0 0  9998
2 67246   0.0257 119.2630 0000503  60.1074 317.8725  1.00270834  1693
