OBJECT_NAME,OBJECT_ID,EPOCH,MEAN_MOTION,ECCENTRICITY,INCLINATION,RA_OF_ASC_NODE,ARG_OF_PERICENTER,MEAN_ANOMALY,EPHEMERIS_TYPE,CLASSIFICATION_TYPE,NORAD_CAT_ID,ELEMENT_SET_NO,REV_AT_EPOCH,BSTAR,MEAN_MOTION_DOT,MEAN_MOTION_DDOT
SXM-9,2024-234A,2026-06-07T02:45:21.908160,1.00271393,.0004717,0.0153,323.8392,351.9074,255.9673,0,U,62259,999,547,0,-.191E-5,0
TJS-12,2024-246A,2026-06-08T05:31:29.005248,1.00272539,.00022222,0.6912,298.2471,87.1008,100.7083,0,U,62374,999,547,0,-.215E-5,0
NUVIEW ALPHA,2024-252B,2026-06-08T04:25:56.376192,1.00272164,.00009432,0.0563,33.5361,25.6150,180.8373,0,U,62455,999,373,0,-.2E-5,0
AGILA,2024-252C,2026-06-08T03:50:16.941984,1.00271880,.00009102,0.0545,133.1747,325.8232,7.2793,0,U,62456,999,507,0,-.166E-5,0
NUVIEW BRAVO,2024-252D,2026-06-08T04:25:56.376192,1.00271433,.00017462,0.0699,144.7938,335.2888,119.8741,0,U,62457,999,370,0,-.199E-5,0
THURAYA-4,2025-001A,2026-06-08T00:17:05.833248,1.00272891,.00000278,0.0253,66.4847,47.5901,190.9226,0,U,62483,999,408,0,.154E-5,0
SHIJIAN-25 (SJ-25),2025-002A,2026-06-07T18:38:12.865920,1.00274168,.0051967,5.0898,61.2190,172.8822,68.9603,0,U,62485,999,526,0,-.335E-5,0
TJS-14,2025-017A,2026-06-08T06:37:31.583136,1.00271158,.00007115,0.8037,294.9524,279.0403,160.4182,0,U,62804,999,518,0,.13E-5,0
SPAINSAT NG I,2025-021A,2026-06-07T22:07:17.103936,1.00269142,.00005159,0.0027,10.8052,163.7161,82.6317,0,U,62852,999,389,0,.166E-5,0
QZS-6 (MICHIBIKI-6),2025-023A,2026-06-08T03:32:46.412160,1.00273933,.00019897,0.0299,51.3370,33.6649,315.2335,0,U,62876,999,485,0,-.218E-5,0
ZHONGXING-10R,2025-036A,2026-06-08T07:03:49.915872,1.00269810,.00033409,0.0436,250.5992,252.1944,330.3849,0,U,63075,999,487,0,-.336E-5,0
TJS-15,2025-045A,2026-06-07T17:17:50.716032,1.00268269,.0005413,0.2768,85.4125,298.5865,225.9531,0,U,63157,999,466,0,-.249E-5,0
TIANLIAN 2-04,2025-062A,2026-06-07T22:21:49.396608,1.00270376,.00314649,4.3996,274.5717,10.5738,26.6960,0,U,63361,999,451,0,-.121E-5,0
TJS-16,2025-064A,2026-06-07T18:35:59.515296,1.00272157,.0003606,1.0729,81.5109,292.5698,321.6958,0,U,63397,999,429,0,-.9E-6,0
TJS-17,2025-073A,2026-06-07T18:36:07.262784,1.00272271,.0002371,1.0387,82.7755,300.4090,316.5395,0,U,63524,999,419,0,-.54E-6,0
TIANLIAN 2-05,2025-084A,2026-06-08T03:12:48.325824,1.00269882,.00033918,4.4752,279.9356,146.1812,259.0168,0,U,63662,999,429,0,.138E-5,0
TJS-19,2025-097A,2026-06-07T18:37:44.513760,1.00269548,.0002038,3.3030,317.2737,234.6960,124.9234,0,U,63924,999,404,0,-.264E-5,0
CHINASAT 3B,2025-106A,2026-06-08T05:37:20.942688,1.00271963,.00028885,0.0389,143.0263,332.6158,32.6583,0,U,64062,999,397,0,-.29E-6,0
SXM-10,2025-122A,2026-06-07T16:17:49.636608,1.00270656,.00017537,0.0171,15.4671,357.0715,11.8306,0,U,64290,999,358,0,-.2E-7,0
COSMOS 2589,2025-131A,2026-06-07T18:03:29.155392,1.00272244,.0001205,0.0438,71.9827,72.8146,120.2091,0,U,64467,999,346,0,-.276E-5,0
CHINASAT 9C,2025-132A,2026-06-08T03:33:16.363584,1.00272453,.00028315,0.0273,261.4146,176.2212,324.4407,0,U,64470,999,405,0,-.232E-5,0
MTG-S1,2025-143A,2026-06-08T06:31:17.180832,1.00271630,.00010481,0.6113,336.9159,29.7601,344.3330,0,U,64723,999,333,0,-.17E-6,0
DROR 1,2025-148A,2026-06-08T06:31:09.693408,1.00271693,.00028531,0.0091,5.2122,25.7576,319.4777,0,U,64784,999,320,0,-.19E-6,0
SHIYAN-29,2025-196A,2026-06-08T01:51:13.072032,1.00256989,.00109234,28.8110,18.6517,171.3837,188.3759,0,U,65486,999,278,0,-.258E-5,0
NUSANTARA LIMA (NUSANTARA 5),2025-205A,2026-06-08T07:04:27.355584,1.00270960,.00003888,0.0287,147.7843,313.6223,14.2473,0,U,65588,999,263,0,-.342E-5,0
TJS-20,2025-238A,2026-06-08T00:39:56.832768,1.00272773,.00047424,5.4910,299.5853,156.9065,232.3044,0,U,66142,999,224,0,.36E-6,0
CMS-03 (GSAT-7R),2025-249B,2026-06-08T01:45:21.134592,1.00271385,.00018177,0.0261,260.7506,174.2651,281.7903,0,U,66311,999,225,0,-.62E-6,0
VIASAT-3 F2,2025-261A,2026-06-08T04:27:03.768192,1.00272073,.00001047,0.0474,141.6018,337.6387,125.1116,0,U,66454,999,270,0,-.218E-5,0
SHIJIAN-28 (SJ-28),2025-277A,2026-06-08T07:05:34.747584,1.00268181,.00005046,4.5624,272.2754,354.2792,213.4068,0,U,66549,999,206,0,-.346E-5,0
TJS-22,2025-290A,2026-06-07T21:36:35.228736,1.00272082,.00019821,1.5505,286.4486,332.8575,27.5821,0,U,66990,999,193,0,.8E-7,0
TJS-23,2025-306A,2026-06-07T15:04:30.799200,1.00273064,.00051171,5.6092,297.5405,165.3267,194.7678,0,U,67226,999,179,0,.27E-6,0
FENGYUN 4C,2025-312A,2026-06-08T07:10:11.804736,1.00270834,.00005039,0.0257,119.2630,60.1074,317.8725,0,U,67246,999,169,0,-.307E-5,0
